STARLINK-3349           
1 50813U 22001L   26068.47527967  .00045078  00000+0  12714-2 0  9991
2 50813  53.2075 124.5069 0004097 337.7117  22.3708 15.35981260231027
KUIPER-00260            
1 67787U 26030Z   26068.62023347  .00034182  00000+0  95058-3 0  9992
2 67787  51.8799 219.3544 0001391  50.4119 309.6990 15.36527197  4992
